STARLINK-3927           
1 52569U 22051AN  22244.25001157 -.00008637  00000+0 -52511-3 0  9994
2 52569  53.2155 129.6810 0002015  56.2659 330.3817 15.08845801 17595
STARLINK-3924           
1 52570U 22051AP  22243.91667824 -.00020605  00000+0 -12803-2 0  9995
2 52570  53.2145 131.1759 0001896  62.9236  12.1653 15.08836528 17541
STARLINK-3901           
1 52574U 22051AQ  22244.25001157 -.00002864  00000+0 -16957-3 0  9990
2 52574  53.2156 129.6039 0002280  63.8265  25.4637 15.07203327 17598
STARLINK-3920           
1 52575U 22051AR  22243.91667824 -.00019937  00000+0 -12374-2 0  9999
2 52575  53.2143 131.1719 0002502  64.2411  30.8351 15.08854810  1308
STARLINK-3932           
1 52576U 22051AS  22244.25001157 -.00042551  00000+0 -26695-2 0  9998
2 52576  53.2151 129.6704 0002360  54.3658  87.1209 15.08863026 17593
STARLINK-3836           
1 52577U 22051AT  22243.91667824 -.00035799  00000+0 -22420-2 0  9998
2 52577  53.2176 146.1875 0002119  64.7325 147.8578 15.08844895 17341
STARLINK-3833           
1 52578U 22051AU  22244.25001157  .00020433  00000+0  12988-2 0  9993
2 52578  53.2187 144.6875 0002650  58.7549 145.4022 15.08821197 17391
STARLINK-3893           
1 52579U 22051AV  22244.25001157 -.00003657  00000+0 -21169-3 0  9997
2 52579  53.2178 144.6895 0002023  72.0193 192.1490 15.08848521 17390
STARLINK-3919           
1 52580U 22051AW  22243.91667824 -.00019356  00000+0 -12011-2 0  9998
2 52580  53.2189 146.1861 0002186  57.0307 175.5455 15.08845769 17346
STARLINK-3915           
1 52581U 22051AX  22243.91667824 -.00018056  00000+0 -11192-2 0  9994
2 52581  53.2156 131.1660 0002188  58.6258  96.4360 15.08838812  1302
STARLINK-3886           
1 52582U 22051AY  22243.91667824 -.00020592  00000+0 -12794-2 0  9992
2 52582  53.2157 131.1679 0002259  56.6484  58.4349 15.08838059  1300
STARLINK-3895           
1 52583U 22051AZ  22244.25001157 -.00008205  00000+0 -49781-3 0  9996
2 52583  53.2159 129.6716 0002153  67.6087 119.0668 15.08852627 17594
STARLINK-3922           
1 52584U 22051BA  22244.25001157  .00000338  00000+0  39358-4 0  9994
2 52584  53.2163 129.6717 0002128  55.5642  91.1196 15.08829783 17599
STARLINK-3906           
1 52585U 22051BB  22244.25001157 -.00014219  00000+0 -87719-3 0  9993
2 52585  53.2170 129.6768 0001670  63.7004 162.9887 15.08833673 17607
STARLINK-3910           
1 52586U 22051BC  22243.91667824 -.00016937  00000+0 -10488-2 0  9992
2 52586  53.2159 131.1691 0001935  66.8596 128.2539 15.08830983 17545
STARLINK-3867           
1 52587U 22051BD  22243.91667824 -.00016452  00000+0 -10177-2 0  9990
2 52587  53.2180 131.1749 0002394  56.9496 178.1268 15.08845660  1301
STARLINK-3917           
1 52588U 22051BE  22244.25001157 -.00010614  00000+0 -64948-3 0  9990
2 52588  53.2182 129.6802 0002201  67.7123 198.9612 15.08852046 17609
STARLINK-4019           
1 52598U 22052A   22244.25001157 -.00024557  00000+0 -15296-2 0  9994
2 52598  53.2152 294.6803 0001610  54.4183   4.7386 15.08851601 17094
STARLINK-4024           
1 52599U 22052B   22244.25001157 -.00048243  00000+0 -30294-2 0  9998
2 52599  53.2149 289.6736 0001916  50.3722 131.0933 15.08888438 17161
STARLINK-4026           
1 52600U 22052C   22243.91667824  .00016656  00000+0  10626-2 0  9990
2 52600  53.2165 291.1702 0001736  51.2478 183.8093 15.08822556 17128
STARLINK-4027           
1 52601U 22052D   22244.25001157 -.00021573  00000+0 -13416-2 0  9996
2 52601  53.2145 289.6758 0001751  51.1572 155.5178 15.08833598 17163
STARLINK-4012           
1 52602U 22052E   22244.25001157 -.00020094  00000+0 -12479-2 0  9992
2 52602  53.2153 289.6817 0001836  50.2218 176.4485 15.08840332 17167
STARLINK-4016           
1 52603U 22052F   22244.50001157 -.00007688  00000+0 -46536-3 0  9997
2 52603  53.2167 288.5543 0001977  49.1448 176.2175 15.08847688 17205
STARLINK-4013           
1 52604U 22052G   22244.50001157  .00022024  00000+0  13976-2 0  9998
2 52604  53.2152 288.5465 0002030  44.1281 141.2197 15.08838614 17209
STARLINK-4000           
1 52605U 22052H   22243.91667824  .00008557  00000+0  55529-3 0  9998
2 52605  53.2158 296.1782 0001626  56.9163  10.6339 15.08825203  1304
STARLINK-3928           
1 52606U 22052J   22244.16668981  .00003483  00000+0  23688-3 0  9996
2 52606  53.2160 290.0462 0001652  44.9082 148.9339 15.08827552 17156
STARLINK-3947           
1 52607U 22052K   22243.91667824  .00008221  00000+0  53412-3 0  9997
2 52607  53.2144 296.1708 0001542  59.1743  48.4260 15.08834276  1307
STARLINK-3979           
1 52608U 22052L   22244.16668981 -.00020266  00000+0 -12580-2 0  9996
2 52608  53.2168 290.0483 0001910  51.4689 182.3273 15.08863061 17167
STARLINK-3997           
1 52609U 22052M   22244.50001157  .00026942  00000+0  17055-2 0  9998
2 52609  53.2174 288.5637 0002082  44.5273 235.5888 15.08816423 17209
STARLINK-3998           
1 52610U 22052N   22244.50001157 -.00027491  00000+0 -17154-2 0  9992
2 52610  53.2149 293.5564 0001847  40.1961 337.7231 15.08846938 17135
STARLINK-3980           
1 52611U 22052P   22243.91667824  .00007493  00000+0  48860-3 0  9993
2 52611  53.2149 296.1733 0001847  51.7163  75.8588 15.08824354  1300
STARLINK-4002           
1 52612U 22052Q   22244.50001157  .00028541  00000+0  18045-2 0  9999
2 52612  53.2174 288.5568 0001833  48.1938 217.1350 15.08831750 17218
STARLINK-3921           
1 52613U 22052R   22244.16668981 -.00007000  00000+0 -42193-3 0  9997
2 52613  53.2137 280.0560 0001315  77.2382 271.5568 15.08856171 17295
STARLINK-3982           
1 52614U 22052S   22244.16668981 -.00006697  00000+0 -40292-3 0  9997
2 52614  53.2139 280.0541 0001640  61.6188 267.1471 15.08854465 17297
STARLINK-4011           
1 52615U 22052T   22244.16668981  .00015537  00000+0  99227-3 0  9991
2 52615  53.2143 295.0479 0001468  63.7497   2.5210 15.08834513 17084
STARLINK-4015           
1 52616U 22052U   22244.16668981 -.00007494  00000+0 -45314-3 0  9995
2 52616  53.2145 280.0590 0001463  57.3752 311.3488 15.08846831 17290
STARLINK-3996           
1 52617U 22052V   22244.50001157  .00028533  00000+0  18857-2 0  9996
2 52617  53.2136 278.1634 0001595  55.0236 209.5478 15.07200009 17349
STARLINK-3983           
1 52618U 22052W   22244.50001157  .00035964  00000+0  22675-2 0  9996
2 52618  53.2156 278.5678 0001516  61.7701 338.5861 15.08819512 17343
STARLINK-3741           
1 52619U 22052X   22244.50001157  .00021255  00000+0  13497-2 0  9997
2 52619  53.2155 278.5660 0001834  53.7363  21.4377 15.08835032 17347
STARLINK-3975           
1 52620U 22052Y   22243.91667824  .00009077  00000+0  58791-3 0  9997
2 52620  53.2154 296.1776 0001486  55.9721 111.5905 15.08823697  1308
STARLINK-3984           
1 52621U 22052Z   22244.16668981 -.00009761  00000+0 -59618-3 0  9992
2 52621  53.2159 280.0639 0001514  54.0668  54.7081 15.08831717 17296
STARLINK-4008           
1 52622U 22052AA  22244.50001157  .00019178  00000+0  12201-2 0  9994
2 52622  53.2173 293.5561 0001406  72.4733 225.3811 15.08830582 17143
STARLINK-3986           
1 52623U 22052AB  22244.50001157  .00034084  00000+0  21513-2 0  9994
2 52623  53.2159 278.5687 0001854  44.6980  95.5830 15.08806075 17342
STARLINK-4009           
1 52624U 22052AC  22244.50001157  .00034732  00000+0  21904-2 0  9999
2 52624  53.2158 278.5667 0001600  54.8547  25.4937 15.08827458 17349
STARLINK-3988           
1 52625U 22052AD  22244.16668981 -.00008889  00000+0 -56602-3 0  9996
2 52625  53.2153 280.0018 0001475  78.6106  91.0351 15.07204482 17296
STARLINK-3990           
1 52626U 22052AE  22244.50001157  .00034285  00000+0  21630-2 0  9990
2 52626  53.2153 278.5677 0001687  57.1193  43.2095 15.08819524 17343
STARLINK-3992           
1 52627U 22052AF  22244.50001157  .00035952  00000+0  22676-2 0  9994
2 52627  53.2188 278.5556 0001795  47.9674 172.2482 15.08805790 17342
STARLINK-4001           
1 52628U 22052AG  22244.50001157 -.00014110  00000+0 -87000-3 0  9993
2 52628  53.2182 293.5587 0001646  51.4124 266.4823 15.08847315 17145
STARLINK-4022           
1 52629U 22052AH  22244.50001157  .00036823  00000+0  23215-2 0  9994
2 52629  53.2177 278.5533 0001775  44.4167 195.9583 15.08810819 17346
STARLINK-3989           
1 52630U 22052AJ  22244.16668981 -.00008416  00000+0 -51110-3 0  9997
2 52630  53.2182 280.0505 0001789  49.2560 119.5398 15.08854424 17296
STARLINK-3794           
1 52631U 22052AK  22244.16668981 -.00006328  00000+0 -37987-3 0  9994
2 52631  53.2176 280.0478 0001505  61.4045 187.4289 15.08836420 17298
STARLINK-3995           
1 52632U 22052AL  22244.16668981 -.00007935  00000+0 -48091-3 0  9998
2 52632  53.2152 280.0432 0001424  60.0284 128.8089 15.08846786 17296
STARLINK-3994           
1 52633U 22052AM  22244.50001157  .00037795  00000+0  23808-2 0  9996
2 52633  53.2172 278.5449 0001839  64.0807 256.2775 15.08829194 17353
STARLINK-3974           
1 52634U 22052AN  22244.16668981 -.00006590  00000+0 -39640-3 0  9996
2 52634  53.2179 280.0475 0001640  52.0954 191.5507 15.08835121 17292
STARLINK-3978           
1 52635U 22052AP  22243.91667824  .00037069  00000+0  23369-2 0  9997
2 52635  53.2131 271.1761 0001549  51.9843  73.0773 15.08810067  1309
STARLINK-3967           
1 52636U 22052AQ  22244.16668981 -.00005835  00000+0 -34863-3 0  9991
2 52636  53.2164 280.0430 0001728  67.3113 201.4968 15.08860250 17295
STARLINK-3961           
1 52637U 22052AR  22243.91667824  .00036650  00000+0  23095-2 0  9990
2 52637  53.2135 271.1759 0001565  49.6486  95.3705 15.08830877  1300
STARLINK-3941           
1 52638U 22052AS  22244.50001157  .00037548  00000+0  23669-2 0  9992
2 52638  53.2159 278.5475 0001545  52.9454 247.3983 15.08806916 17348
STARLINK-3968           
1 52639U 22052AT  22243.91667824  .00037103  00000+0  23395-2 0  9999
2 52639  53.2135 271.1765 0002004  41.2080 163.8631 15.08801586  1300
STARLINK-3977           
1 52640U 22052AU  22244.16668981 -.00017962  00000+0 -11131-2 0  9992
2 52640  53.2146 270.0556 0001861  55.6747 342.9825 15.08844029 17434
